{"fetched_at":"2026-07-20T18:29:11.479Z","source":"https://celestrak.org/NORAD/elements/gp.php?NAME=ASTROCAST&FORMAT=JSON","constellation":"astrocast","records":[{"OBJECT_NAME":"ASTROCAST 0.1","OBJECT_ID":"2018-099AS","EPOCH":"2026-07-20T05:40:16.516992","CLASSIFICATION_TYPE":"U","MEAN_MOTION":15.51691624,"ECCENTRICITY":0.00053463,"INCLINATION":97.4363,"RA_OF_ASC_NODE":280.817,"ARG_OF_PERICENTER":115.3544,"MEAN_ANOMALY":244.8262,"EPHEMERIS_TYPE":0,"NORAD_CAT_ID":43798,"ELEMENT_SET_NO":999,"REV_AT_EPOCH":41955,"BSTAR":0.0004063821,"MEAN_MOTION_DOT":0.00024133,"MEAN_MOTION_DDOT":0},{"OBJECT_NAME":"ASTROCAST-0402","OBJECT_ID":"2023-001DE","EPOCH":"2026-07-20T03:52:32.415456","CLASSIFICATION_TYPE":"U","MEAN_MOTION":15.29085329,"ECCENTRICITY":0.00066354,"INCLINATION":97.5575,"RA_OF_ASC_NODE":294.8656,"ARG_OF_PERICENTER":121.0545,"MEAN_ANOMALY":239.1347,"EPHEMERIS_TYPE":0,"NORAD_CAT_ID":55109,"ELEMENT_SET_NO":999,"REV_AT_EPOCH":14957,"BSTAR":0.00028597429,"MEAN_MOTION_DOT":0.00008002,"MEAN_MOTION_DDOT":0},{"OBJECT_NAME":"ASTROCAST-0401","OBJECT_ID":"2023-001DF","EPOCH":"2026-07-20T01:08:27.469824","CLASSIFICATION_TYPE":"U","MEAN_MOTION":15.28649184,"ECCENTRICITY":0.00094371,"INCLINATION":97.556,"RA_OF_ASC_NODE":294.551,"ARG_OF_PERICENTER":93.91,"MEAN_ANOMALY":266.3219,"EPHEMERIS_TYPE":0,"NORAD_CAT_ID":55110,"ELEMENT_SET_NO":999,"REV_AT_EPOCH":19622,"BSTAR":0.00037108858,"MEAN_MOTION_DOT":0.00010279,"MEAN_MOTION_DDOT":0},{"OBJECT_NAME":"ASTROCAST-0403","OBJECT_ID":"2023-001DG","EPOCH":"2026-07-19T18:58:55.303968","CLASSIFICATION_TYPE":"U","MEAN_MOTION":15.32481507,"ECCENTRICITY":0.00051426,"INCLINATION":97.5615,"RA_OF_ASC_NODE":295.6417,"ARG_OF_PERICENTER":196.0334,"MEAN_ANOMALY":164.0746,"EPHEMERIS_TYPE":0,"NORAD_CAT_ID":55111,"ELEMENT_SET_NO":999,"REV_AT_EPOCH":14955,"BSTAR":0.00042362998,"MEAN_MOTION_DOT":0.00013219,"MEAN_MOTION_DDOT":0},{"OBJECT_NAME":"ASTROCAST-0404","OBJECT_ID":"2023-001DH","EPOCH":"2026-07-19T23:59:10.094496","CLASSIFICATION_TYPE":"U","MEAN_MOTION":15.28866565,"ECCENTRICITY":0.00054682,"INCLINATION":97.5663,"RA_OF_ASC_NODE":295.6378,"ARG_OF_PERICENTER":222.4711,"MEAN_ANOMALY":137.6106,"EPHEMERIS_TYPE":0,"NORAD_CAT_ID":55112,"ELEMENT_SET_NO":999,"REV_AT_EPOCH":14954,"BSTAR":0.00016055421,"MEAN_MOTION_DOT":0.00004426,"MEAN_MOTION_DDOT":0}]}
