ASTROCAST 0.1           
1 43798U 18099AS  26201.23630228  .00024133  00000+0  40638-3 0  9991
2 43798  97.4363 280.8170 0005346 115.3544 244.8262 15.51691624419554
ASTROCAST-0402          
1 55109U 23001DE  26201.16148629  .00008002  00000+0  28597-3 0  9997
2 55109  97.5575 294.8656 0006635 121.0545 239.1347 15.29085329149577
ASTROCAST-0401          
1 55110U 23001DF  26201.04754016  .00010279  00000+0  37109-3 0  9997
2 55110  97.5560 294.5510 0009437  93.9100 266.3219 15.28649184196224
ASTROCAST-0403          
1 55111U 23001DG  26200.79091787  .00013219  00000+0  42363-3 0  9993
2 55111  97.5615 295.6417 0005142 196.0334 164.0746 15.32481507149558
ASTROCAST-0404          
1 55112U 23001DH  26200.99942239  .00004426  00000+0  16055-3 0  9992
2 55112  97.5663 295.6378 0005468 222.4711 137.6106 15.28866565149543
